{
  "norad_id": 59736,
  "name": "STARLINK-31707",
  "history": [
    {
      "epoch": "2026-03-28T16:03:47.792160",
      "apogee_km": 483.261332124438,
      "perigee_km": 482.8819072877677,
      "latitude_deg": -36.60197945624447,
      "longitude_deg": -142.14689759979956,
      "semi_major_axis_km": 6861.208619706103,
      "eccentricity": 2.765e-05,
      "inclination_deg": 43.0023,
      "raan_deg": 76.2384,
      "arg_perigee_deg": 299.7992,
      "mean_anomaly_deg": 60.2832,
      "mean_motion_rev_day": 15.27572478
    },
    {
      "epoch": "2026-03-29T01:28:44.609952",
      "apogee_km": 483.6640816233412,
      "perigee_km": 482.52237291352503,
      "latitude_deg": -36.73616801047092,
      "longitude_deg": -104.48376671993174,
      "semi_major_axis_km": 6861.230227268433,
      "eccentricity": 8.32e-05,
      "inclination_deg": 43.0017,
      "raan_deg": 74.0224,
      "arg_perigee_deg": 267.8779,
      "mean_anomaly_deg": 92.1977,
      "mean_motion_rev_day": 15.27565262
    }
  ]
}